NORAD_CAT_ID,OBJECT_NAME,OBJECT_TYPE,EPOCH,MEAN_MOTION,ECCENTRICITY,INCLINATION,RA_OF_ASC_NODE,ARG_OF_PERICENTER,MEAN_ANOMALY,BSTAR,MEAN_MOTION_DOT,MEAN_MOTION_DDOT,TLE_LINE0,TLE_LINE1,TLE_LINE2,SEMIMAJOR_AXIS,PERIOD,APOGEE,PERIGEE,DECAYED
52002.0,STARLINK-3668,PAYLOAD,2023-11-26 17:34:00,15.08843394,0.0001755,53.2165,162.9421,76.2246,283.8941,9.4874e-05,1.222e-05,0.0,0 STARLINK-3668,1 52002U 22025AY  23330.73195248  .00001222  00000-0  94874-4 0  9993,2 52002  53.2165 162.9421 0001755  76.2246 283.8941 15.08843394 96536,6917.87,95.437,540.949,538.521,0.0
52002.0,STARLINK-3668,PAYLOAD,2023-11-26 22:20:09,15.08843398,0.0001667,53.2161,162.0498,76.5144,283.6034,8.4821e-05,1.062e-05,0.0,0 STARLINK-3668,1 52002U 22025AY  23330.93067125  .00001062  00000-0  84821-4 0  9990,2 52002  53.2161 162.0498 0001667  76.5144 283.6034 15.08843398 95050,6917.87,95.437,540.888,538.582,0.0
52002.0,STARLINK-3668,PAYLOAD,2023-11-27 12:38:38,15.08840865,0.0001604,53.2153,159.3723,85.5486,274.5689,-7.117e-05,-1.421e-05,0.0,0 STARLINK-3668,1 52002U 22025AY  23331.52683633 -.00001421  00000-0 -71170-4 0  9998,2 52002  53.2153 159.3723 0001604  85.5486 274.5689 15.08840865 96659,6917.878,95.437,540.852,538.633,0.0
52002.0,STARLINK-3668,PAYLOAD,2023-11-27 17:24:47,15.08842126,0.0001379,53.2146,158.479,101.818,258.2967,-7.2359e-05,-1.439e-05,0.0,0 STARLINK-3668,1 52002U 22025AY  23331.72555377 -.00001439  00000-0 -72359-4 0  9992,2 52002  53.2146 158.4790 0001379 101.8180 258.2967 15.08842126 95173,6917.874,95.437,540.693,538.785,0.0
52002.0,STARLINK-3668,PAYLOAD,2023-11-28 12:29:25,15.08863065,0.0001461,53.2149,154.9094,112.1073,248.0074,-0.00024169,-4.135e-05,0.0,0 STARLINK-3668,1 52002U 22025AY  23332.52042905 -.00004135  00000-0 -24169-3 0  9990,2 52002  53.2149 154.9094 0001461 112.1073 248.0074 15.08863065 96804,6917.81,95.436,540.686,538.664,0.0
52002.0,STARLINK-3668,PAYLOAD,2023-11-28 18:50:57,15.08854361,0.0001241,53.2154,153.7209,104.5057,255.6073,-3.0999e-05,-7.81e-06,0.0,0 STARLINK-3668,1 52002U 22025AY  23332.78538464 -.00000781  00000-0 -30999-4 0  9990,2 52002  53.2154 153.7209 0001241 104.5057 255.6073 15.08854361 95337,6917.836,95.437,540.56,538.843,0.0
52002.0,STARLINK-3668,PAYLOAD,2023-11-29 12:20:12,15.08838766,0.0001323,53.2154,150.4517,74.9857,285.1281,9.6087e-05,1.242e-05,0.0,0 STARLINK-3668,1 52002U 22025AY  23333.51403289  .00001242  00000-0  96087-4 0  9999,2 52002  53.2154 150.4517 0001323  74.9857 285.1281 15.08838766 96951,6917.884,95.438,540.664,538.834,0.0
52002.0,STARLINK-3668,PAYLOAD,2023-11-30 18:32:31,15.08844921,0.0001255,53.2158,144.8005,87.2534,272.8601,5.161e-05,5.34e-06,0.0,0 STARLINK-3668,1 52002U 22025AY  23334.77258965  .00000534  00000-0  51610-4 0  9993,2 52002  53.2158 144.8005 0001255  87.2534 272.8601 15.08844921 97148,6917.865,95.437,540.599,538.862,0.0
52002.0,STARLINK-3668,PAYLOAD,2023-12-01 10:26:23,15.08838327,0.0001231,53.2163,141.8257,101.0304,259.0826,3.9711e-05,3.44e-06,0.0,0 STARLINK-3668,1 52002U 22025AY  23335.43499364  .00000344  00000-0  39711-4 0  9994,2 52002  53.2163 141.8257 0001231 101.0304 259.0826 15.08838327 97244,6917.886,95.438,540.602,538.899,0.0
52002.0,STARLINK-3668,PAYLOAD,2023-12-01 16:47:55,15.08840942,0.0001261,53.2161,140.6375,89.9255,270.1881,6.2945e-05,7.14e-06,0.0,0 STARLINK-3668,1 52002U 22025AY  23335.69995160  .00000714  00000-0  62945-4 0  9993,2 52002  53.2161 140.6375 0001261  89.9255 270.1881 15.08840942 95779,6917.878,95.437,540.615,538.87,0.0
52002.0,STARLINK-3668,PAYLOAD,2023-12-02 18:14:05,15.08846679,0.0001233,53.2161,135.8799,81.8298,278.2834,9.7557e-05,1.265e-05,0.0,0 STARLINK-3668,1 52002U 22025AY  23336.75978560  .00001265  00000-0  97557-4 0  9995,2 52002  53.2161 135.8799 0001233  81.8298 278.2834 15.08846679 97448,6917.86,95.437,540.578,538.872,0.0
52002.0,STARLINK-3668,PAYLOAD,2023-12-03 13:18:44,15.08826894,0.0001012,53.2168,132.3121,115.3542,244.7555,-4.4642e-05,-9.98e-06,0.0,0 STARLINK-3668,1 52002U 22025AY  23337.55468422 -.00000998  00000-0 -44642-4 0  9996,2 52002  53.2168 132.3121 0001012 115.3542 244.7555 15.08826894 96057,6917.92,95.438,540.486,539.085,0.0
52002.0,STARLINK-3668,PAYLOAD,2023-12-03 18:04:54,15.08827516,0.000131,53.2171,131.4193,111.1823,248.931,-4.9782e-05,-1.08e-05,0.0,0 STARLINK-3668,1 52002U 22025AY  23337.75340604 -.00001080  00000-0 -49782-4 0  9992,2 52002  53.2171 131.4193 0001310 111.1823 248.9310 15.08827516 97594,6917.919,95.438,540.69,538.877,0.0
52002.0,STARLINK-3668,PAYLOAD,2023-12-04 09:58:46,15.08835767,0.0001414,53.2174,128.4426,112.0488,248.0655,-0.00013168,-2.383e-05,0.0,0 STARLINK-3668,1 52002U 22025AY  23338.41581153 -.00002383  00000-0 -13168-3 0  9997,2 52002  53.2174 128.4426 0001414 112.0488 248.0655 15.08835767 96188,6917.893,95.438,540.737,538.78,0.0
52002.0,STARLINK-3668,PAYLOAD,2023-12-05 19:21:50,15.08841953,0.0001372,53.2179,122.201,80.6841,279.4306,0.00023928,3.522e-05,0.0,0 STARLINK-3668,1 52002U 22025AY  23339.80683562  .00003522  00000-0  23928-3 0  9997,2 52002  53.2179 122.2010 0001372  80.6841 279.4306 15.08841953 97906,6917.874,95.437,540.689,538.79,0.0
52002.0,STARLINK-3668,PAYLOAD,2023-12-06 12:51:05,15.08840795,0.0001798,53.2166,118.9287,119.4554,240.6618,3.787e-05,3.15e-06,0.0,0 STARLINK-3668,1 52002U 22025AY  23340.53547660  .00000315  00000-0  37870-4 0  9996,2 52002  53.2166 118.9287 0001798 119.4554 240.6618 15.08840795 96508,6917.878,95.438,540.987,538.499,0.0
52002.0,STARLINK-3668,PAYLOAD,2023-12-06 19:12:37,15.08838937,0.00016,53.217,117.7409,104.4049,255.7121,2.2789e-05,7.5e-07,0.0,0 STARLINK-3668,1 52002U 22025AY  23340.80043827  .00000075  00000-0  22789-4 0  9998,2 52002  53.2170 117.7409 0001600 104.4049 255.7121 15.08838937 98054,6917.884,95.438,540.855,538.642,0.0
52002.0,STARLINK-3668,PAYLOAD,2023-12-07 12:41:52,15.08835098,0.0001391,53.2157,114.4683,106.7035,253.411,7.0472e-06,-1.76e-06,0.0,0 STARLINK-3668,1 52002U 22025AY  23341.52908138 -.00000176  00000-0  70472-5 0  9999,2 52002  53.2157 114.4683 0001391 106.7035 253.4110 15.08835098 96656,6917.895,95.438,540.723,538.798,0.0
52002.0,STARLINK-3668,PAYLOAD,2023-12-08 09:21:53,15.08838109,0.0001402,53.2171,110.6026,102.7547,257.3601,6.4082e-05,7.32e-06,0.0,0 STARLINK-3668,1 52002U 22025AY  23342.39019844  .00000732  00000-0  64082-4 0  9998,2 52002  53.2171 110.6026 0001402 102.7547 257.3601 15.08838109 98294,6917.886,95.438,540.721,538.781,0.0
52002.0,STARLINK-3668,PAYLOAD,2023-12-08 12:32:39,15.08841067,0.0001369,53.2173,110.0076,103.5858,256.5287,8.5363e-05,1.071e-05,0.0,0 STARLINK-3668,1 52002U 22025AY  23342.52267591  .00001071  00000-0  85363-4 0  9999,2 52002  53.2173 110.0076 0001369 103.5858 256.5287 15.08841067 96804,6917.877,95.437,540.689,538.795,0.0
52002.0,STARLINK-3668,PAYLOAD,2023-12-09 07:37:17,15.08831845,0.0001135,53.2178,106.4461,67.1187,292.9925,5.9109e-05,6.53e-06,0.0,0 STARLINK-3668,1 52002U 22025AY  23343.31756553  .00000653  00000-0  59109-4 0  9992,2 52002  53.2178 106.4461 0001135  67.1187 292.9925 15.08831845 98434,6917.905,95.438,540.555,538.985,0.0
52002.0,STARLINK-3668,PAYLOAD,2023-12-09 12:23:27,15.0883239,0.0001254,53.2166,105.5477,96.5784,263.5351,1.4866e-05,-5.1e-07,0.0,0 STARLINK-3668,1 52002U 22025AY  23343.51628729 -.00000051  00000-0  14866-4 0  9991,2 52002  53.2166 105.5477 0001254  96.5784 263.5351 15.08832390 96957,6917.904,95.438,540.636,538.901,0.0
52002.0,STARLINK-3668,PAYLOAD,2023-12-10 12:14:14,15.08822101,0.0001685,53.2165,101.0861,105.6379,254.4799,0.00024846,3.667e-05,0.0,0 STARLINK-3668,1 52002U 22025AY  23344.50988672  .00003667  00000-0  24846-3 0  9990,2 52002  53.2165 101.0861 0001685 105.6379 254.4799 15.08822101 98613,6917.935,95.439,540.966,538.634,0.0
52002.0,STARLINK-3668,PAYLOAD,2023-12-10 13:49:38,15.08761179,0.0001878,53.2172,100.7896,92.0864,268.0344,0.0010691,0.00016731,0.0,0 STARLINK-3668,1 52002U 22025AY  23344.57613882  .00016731  00000-0  10691-2 0  9993,2 52002  53.2172 100.7896 0001878  92.0864 268.0344 15.08761179 97115,6918.121,95.443,541.286,538.687,0.0
52002.0,STARLINK-3668,PAYLOAD,2023-12-10 15:24:59,15.08848995,0.0001294,53.2167,100.4927,92.9713,267.1427,1.6833e-05,-2e-07,0.0,0 STARLINK-3668,1 52002U 22025AY  23344.64235888 -.00000020  00000-0  16833-4 0  9998,2 52002  53.2167 100.4927 0001294  92.9713 267.1427 15.08848995 98637,6917.853,95.437,540.613,538.823,0.0
52002.0,STARLINK-3668,PAYLOAD,2023-12-11 12:05:01,15.08833453,0.0001744,53.218,96.6305,62.8721,297.2449,9.3919e-05,1.207e-05,0.0,0 STARLINK-3668,1 52002U 22025AY  23345.50348948  .00001207  00000-0  93919-4 0  9993,2 52002  53.2180  96.6305 0001744  62.8721 297.2449 15.08833453 98768,6917.9,95.438,540.972,538.559,0.0
52002.0,STARLINK-3668,PAYLOAD,2023-12-11 13:40:24,15.08833514,0.0001716,53.2179,96.3333,63.9795,296.1373,9.1256e-05,1.164e-05,0.0,0 STARLINK-3668,1 52002U 22025AY  23345.56972972  .00001164  00000-0  91256-4 0  9993,2 52002  53.2179  96.3333 0001716  63.9795 296.1373 15.08833514 97262,6917.9,95.438,540.952,538.578,0.0
52002.0,STARLINK-3668,PAYLOAD,2023-12-11 15:15:47,15.08833959,0.0001683,53.2182,96.0364,55.3628,304.7523,0.00011212,1.497e-05,0.0,0 STARLINK-3668,1 52002U 22025AY  23345.63596916  .00001497  00000-0  11212-3 0  9993,2 52002  53.2182  96.0364 0001683  55.3628 304.7523 15.08833959 97277,6917.899,95.438,540.928,538.6,0.0
52002.0,STARLINK-3668,PAYLOAD,2023-12-12 13:31:11,15.08841689,0.0001868,53.2184,91.8719,61.7911,298.327,8.0817e-06,-1.6e-06,0.0,0 STARLINK-3668,1 52002U 22025AY  23346.56332805 -.00000160  00000-0  80817-5 0  9997,2 52002  53.2184  91.8719 0001868  61.7911 298.3270 15.08841689 97419,6917.875,95.437,541.032,538.448,0.0
52002.0,STARLINK-3668,PAYLOAD,2023-12-13 13:21:57,15.08846109,0.0001534,53.2182,87.409,75.0539,285.0623,6.5045e-05,7.48e-06,0.0,0 STARLINK-3668,1 52002U 22025AY  23347.55691949  .00000748  00000-0  65045-4 0  9990,2 52002  53.2182  87.4090 0001534  75.0539 285.0623 15.08846109 97567,6917.862,95.437,540.788,538.666,0.0
